{
  "type": "FeatureCollection",
  "features": [
    {
      "type": "Feature",
      "properties": {
        "norad_id": 40010,
        "name": "KAZEOSAT 2",
        "group": "resource",
        "lat": 38.3935968193936,
        "lon": -163.19562516428067,
        "alt_km": 613.6259935646358,
        "timestamp": "2025-12-25T03:55:55.963335+00:00",
        "meta_object_name": "KAZEOSAT 2",
        "meta_object_id": "2014-033A",
        "meta_epoch": "2025-12-24T19:40:23.183328",
        "meta_mean_motion": 14.85189074,
        "meta_eccentricity": 0.0008688,
        "meta_inclination": 97.5496,
        "meta_ra_of_asc_node": 202.5106,
        "meta_arg_of_pericenter": 164.7305,
        "meta_mean_anomaly": 195.4174,
        "meta_ephemeris_type": 0,
        "meta_classification_type": "U",
        "meta_norad_cat_id": 40010,
        "meta_element_set_no": 999,
        "meta_rev_at_epoch": 62307,
        "meta_bstar": 0.00013494,
        "meta_mean_motion_dot": 1.107e-05,
        "meta_mean_motion_ddot": 0,
        "tle_line1": "1 40010U 14033A   25358.81971277  .00001107  00000+0  13494-3 0  9993",
        "tle_line2": "2 40010  97.5496 202.5106 0008688 164.7305 195.4174 14.85189074623075"
      },
      "geometry": {
        "type": "Point",
        "coordinates": [
          -163.19562516428067,
          38.3935968193936
        ]
      }
    },
    {
      "type": "Feature",
      "properties": {
        "norad_id": 40011,
        "name": "HODOYOSHI-4",
        "group": "resource",
        "lat": -50.31598013079408,
        "lon": -1.751410453213297,
        "alt_km": 607.2692933376884,
        "timestamp": "2025-12-25T03:55:55.963345+00:00",
        "meta_object_name": "HODOYOSHI-4",
        "meta_object_id": "2014-033B",
        "meta_epoch": "2025-12-24T20:26:29.336352",
        "meta_mean_motion": 14.8752387,
        "meta_eccentricity": 0.0024103,
        "meta_inclination": 97.5412,
        "meta_ra_of_asc_node": 187.1389,
        "meta_arg_of_pericenter": 160.233,
        "meta_mean_anomaly": 199.9827,
        "meta_ephemeris_type": 0,
        "meta_classification_type": "U",
        "meta_norad_cat_id": 40011,
        "meta_element_set_no": 999,
        "meta_rev_at_epoch": 62288,
        "meta_bstar": 0.00020606,
        "meta_mean_motion_dot": 1.827e-05,
        "meta_mean_motion_ddot": 0,
        "tle_line1": "1 40011U 14033B   25358.85172843  .00001827  00000+0  20606-3 0  9992",
        "tle_line2": "2 40011  97.5412 187.1389 0024103 160.2330 199.9827 14.87523870622884"
      },
      "geometry": {
        "type": "Point",
        "coordinates": [
          -1.751410453213297,
          -50.31598013079408
        ]
      }
    },
    {
      "type": "Feature",
      "properties": {
        "norad_id": 40013,
        "name": "DEIMOS-2",
        "group": "resource",
        "lat": -81.70603346553303,
        "lon": -59.01847639095684,
        "alt_km": 596.8010300262195,
        "timestamp": "2025-12-25T03:55:55.963356+00:00",
        "meta_object_name": "DEIMOS-2",
        "meta_object_id": "2014-033D",
        "meta_epoch": "2025-12-24T21:53:10.478112",
        "meta_mean_motion": 14.93022397,
        "meta_eccentricity": 0.0001354,
        "meta_inclination": 97.6052,
        "meta_ra_of_asc_node": 234.311,
        "meta_arg_of_pericenter": 106.5986,
        "meta_mean_anomaly": 253.5383,
        "meta_ephemeris_type": 0,
        "meta_classification_type": "U",
        "meta_norad_cat_id": 40013,
        "meta_element_set_no": 999,
        "meta_rev_at_epoch": 61171,
        "meta_bstar": 0.00015819,
        "meta_mean_motion_dot": 1.591e-05,
        "meta_mean_motion_ddot": 0,
        "tle_line1": "1 40013U 14033D   25358.91192683  .00001591  00000+0  15819-3 0  9993",
        "tle_line2": "2 40013  97.6052 234.3110 0001354 106.5986 253.5383 14.93022397611716"
      },
      "geometry": {
        "type": "Point",
        "coordinates": [
          -59.01847639095684,
          -81.70603346553303
        ]
      }
    },
    {
      "type": "Feature",
      "properties": {
        "norad_id": 40015,
        "name": "HODOYOSHI-3",
        "group": "resource",
        "lat": 35.985179187437815,
        "lon": 158.8799777836719,
        "alt_km": 633.9544960872136,
        "timestamp": "2025-12-25T03:55:55.963367+00:00",
        "meta_object_name": "HODOYOSHI-3",
        "meta_object_id": "2014-033F",
        "meta_epoch": "2025-12-24T19:40:52.752000",
        "meta_mean_motion": 14.84846481,
        "meta_eccentricity": 0.0032504,
        "meta_inclination": 97.6207,
        "meta_ra_of_asc_node": 164.1304,
        "meta_arg_of_pericenter": 206.8915,
        "meta_mean_anomaly": 153.0618,
        "meta_ephemeris_type": 0,
        "meta_classification_type": "U",
        "meta_norad_cat_id": 40015,
        "meta_element_set_no": 999,
        "meta_rev_at_epoch": 62174,
        "meta_bstar": 0.00019691,
        "meta_mean_motion_dot": 1.636e-05,
        "meta_mean_motion_ddot": 0,
        "tle_line1": "1 40015U 14033F   25358.82005500  .00001636  00000+0  19691-3 0  9998",
        "tle_line2": "2 40015  97.6207 164.1304 0032504 206.8915 153.0618 14.84846481621749"
      },
      "geometry": {
        "type": "Point",
        "coordinates": [
          158.8799777836719,
          35.985179187437815
        ]
      }
    },
    {
      "type": "Feature",
      "properties": {
        "norad_id": 40053,
        "name": "SPOT 7",
        "group": "resource",
        "lat": 55.10960738948266,
        "lon": -107.28101131862344,
        "alt_km": 684.7278712976449,
        "timestamp": "2025-12-25T03:55:55.963377+00:00",
        "meta_object_name": "SPOT 7",
        "meta_object_id": "2014-034A",
        "meta_epoch": "2025-12-24T20:47:26.801088",
        "meta_mean_motion": 14.60748112,
        "meta_eccentricity": 0.000154,
        "meta_inclination": 98.0887,
        "meta_ra_of_asc_node": 60.6614,
        "meta_arg_of_pericenter": 81.5221,
        "meta_mean_anomaly": 278.6154,
        "meta_ephemeris_type": 0,
        "meta_classification_type": "U",
        "meta_norad_cat_id": 40053,
        "meta_element_set_no": 999,
        "meta_rev_at_epoch": 61168,
        "meta_bstar": 0.00010316,
        "meta_mean_motion_dot": 4.58e-06,
        "meta_mean_motion_ddot": 0,
        "tle_line1": "1 40053U 14034A   25358.86628242  .00000458  00000+0  10316-3 0  9995",
        "tle_line2": "2 40053  98.0887  60.6614 0001540  81.5221 278.6154 14.60748112611685"
      },
      "geometry": {
        "type": "Point",
        "coordinates": [
          -107.28101131862344,
          55.10960738948266
        ]
      }
    },
    {
      "type": "Feature",
      "properties": {
        "norad_id": 40072,
        "name": "SKYSAT-B",
        "group": "resource",
        "lat": 12.025246872277375,
        "lon": 125.32273586083879,
        "alt_km": 604.576295151961,
        "timestamp": "2025-12-25T03:55:55.963387+00:00",
        "meta_object_name": "SKYSAT-B",
        "meta_object_id": "2014-037D",
        "meta_epoch": "2025-12-24T14:15:52.514784",
        "meta_mean_motion": 14.8736794,
        "meta_eccentricity": 0.0006822,
        "meta_inclination": 98.3628,
        "meta_ra_of_asc_node": 302.9274,
        "meta_arg_of_pericenter": 117.0616,
        "meta_mean_anomaly": 243.1296,
        "meta_ephemeris_type": 0,
        "meta_classification_type": "U",
        "meta_norad_cat_id": 40072,
        "meta_element_set_no": 999,
        "meta_rev_at_epoch": 62000,
        "meta_bstar": 0.00019301,
        "meta_mean_motion_dot": 1.684e-05,
        "meta_mean_motion_ddot": 0,
        "tle_line1": "1 40072U 14037D   25358.59435781  .00001684  00000+0  19301-3 0  9998",
        "tle_line2": "2 40072  98.3628 302.9274 0006822 117.0616 243.1296 14.87367940620002"
      },
      "geometry": {
        "type": "Point",
        "coordinates": [
          125.32273586083879,
          12.025246872277375
        ]
      }
    },
    {
      "type": "Feature",
      "properties": {
        "norad_id": 40115,
        "name": "WORLDVIEW-3 (WV-3)",
        "group": "resource",
        "lat": -45.62904832539705,
        "lon": 79.42761459000666,
        "alt_km": 622.7912033981029,
        "timestamp": "2025-12-25T03:55:55.963397+00:00",
        "meta_object_name": "WORLDVIEW-3 (WV-3)",
        "meta_object_id": "2014-048A",
        "meta_epoch": "2025-12-24T18:26:05.730432",
        "meta_mean_motion": 14.84674175,
        "meta_eccentricity": 0.000203,
        "meta_inclination": 97.8765,
        "meta_ra_of_asc_node": 70.9014,
        "meta_arg_of_pericenter": 129.6235,
        "meta_mean_anomaly": 230.5159,
        "meta_ephemeris_type": 0,
        "meta_classification_type": "U",
        "meta_norad_cat_id": 40115,
        "meta_element_set_no": 999,
        "meta_rev_at_epoch": 61602,
        "meta_bstar": 0.00012669,
        "meta_mean_motion_dot": 1.018e-05,
        "meta_mean_motion_ddot": 0,
        "tle_line1": "1 40115U 14048A   25358.76812188  .00001018  00000+0  12669-3 0  9998",
        "tle_line2": "2 40115  97.8765  70.9014 0002030 129.6235 230.5159 14.84674175616026"
      },
      "geometry": {
        "type": "Point",
        "coordinates": [
          79.42761459000666,
          -45.62904832539705
        ]
      }
    }
  ]
}